XRISM                   
1 57800U 23137A   26086.60149458  .00005757  00000+0  32405-3 0  9995
2 57800  31.0015 167.7898 0007957 219.7178 140.2878 15.11700228140508
ACS3                    
1 59588U 24077B   26086.78157360  .00025469  00000+0  20039-1 0  9994
2 59588  97.1971  23.8266 0072212  35.1438 325.4459 13.90428183 96710
SZ-21 MODULE            
1 66515U 25246C   26086.70196654  .00037039  00000+0  30140-3 0  9994
2 66515  41.4743  92.3645 0001454 209.3733 150.7028 15.69915920 20909
