CCSDS_OMM_VERS = 2.0
CREATION_DATE  = 
ORIGINATOR     = 

OBJECT_NAME    = XRISM
OBJECT_ID      = 2023-137A
CENTER_NAME    = EARTH
REF_FRAME      = TEME
TIME_SYSTEM    = UTC
MEAN_ELEMENT_THEORY = SGP/SGP4

EPOCH          = 2026-03-27T14:26:09.131712
MEAN_MOTION    = 15.11700228
ECCENTRICITY   = .0007957
INCLINATION    = 31.0015
RA_OF_ASC_NODE = 167.7898
ARG_OF_PERICENTER = 219.7178
MEAN_ANOMALY   = 140.2878

EPHEMERIS_TYPE = 0
CLASSIFICATION_TYPE = U
NORAD_CAT_ID   = 57800
ELEMENT_SET_NO = 999
REV_AT_EPOCH   = 14050
BSTAR          = .32405E-3
MEAN_MOTION_DOT = .5757E-4
MEAN_MOTION_DDOT = 0

CCSDS_OMM_VERS = 2.0
CREATION_DATE  = 
ORIGINATOR     = 

OBJECT_NAME    = ACS3
OBJECT_ID      = 2024-077B
CENTER_NAME    = EARTH
REF_FRAME      = TEME
TIME_SYSTEM    = UTC
MEAN_ELEMENT_THEORY = SGP/SGP4

EPOCH          = 2026-03-27T18:45:27.959040
MEAN_MOTION    = 13.90428183
ECCENTRICITY   = .0072212
INCLINATION    = 97.1971
RA_OF_ASC_NODE = 23.8266
ARG_OF_PERICENTER = 35.1438
MEAN_ANOMALY   = 325.4459

EPHEMERIS_TYPE = 0
CLASSIFICATION_TYPE = U
NORAD_CAT_ID   = 59588
ELEMENT_SET_NO = 999
REV_AT_EPOCH   = 9671
BSTAR          = .20039E-1
MEAN_MOTION_DOT = .25469E-3
MEAN_MOTION_DDOT = 0

CCSDS_OMM_VERS = 2.0
CREATION_DATE  = 
ORIGINATOR     = 

OBJECT_NAME    = SZ-21 MODULE
OBJECT_ID      = 2025-246C
CENTER_NAME    = EARTH
REF_FRAME      = TEME
TIME_SYSTEM    = UTC
MEAN_ELEMENT_THEORY = SGP/SGP4

EPOCH          = 2026-03-27T16:50:49.909056
MEAN_MOTION    = 15.69915920
ECCENTRICITY   = .0001454
INCLINATION    = 41.4743
RA_OF_ASC_NODE = 92.3645
ARG_OF_PERICENTER = 209.3733
MEAN_ANOMALY   = 150.7028

EPHEMERIS_TYPE = 0
CLASSIFICATION_TYPE = U
NORAD_CAT_ID   = 66515
ELEMENT_SET_NO = 999
REV_AT_EPOCH   = 2090
BSTAR          = .3014E-3
MEAN_MOTION_DOT = .37039E-3
MEAN_MOTION_DDOT = 0

